{"spkid": "20453707", "covariance": {"elements": [{"label": "e", "sigma": 6.83984979807697e-08, "name": "e", "units": null, "title": "eccentricity", "value": ".2287938090376776"}, {"units": "au", "title": "perihelion distance", "value": ".8739137569318268", "sigma": 7.72505114316437e-08, "name": "q", "label": "q"}, {"units": "TDB", "value": "2458580.579185912757", "title": "time of perihelion passage", "name": "tp", "sigma": 2.19429167989157e-05, "label": "tp"}, {"label": "node", "units": "deg", "title": "longitude of the ascending node", "value": "34.44307765167134", "sigma": 5.23938645904241e-06, "name": "om"}, {"label": "peri", "value": "307.0411796904795", "title": "argument of perihelion", "units": "deg", "name": "w", "sigma": 1.55453369408987e-05}, {"name": "i", "sigma": 1.15205165810154e-05, "title": "inclination", "value": "31.48392620889047", "units": "deg", "label": "i"}], "data": [["4.678354526025362E-15", "-5.281488458005364E-15", "9.761588478410938E-14", "5.826903668056859E-14", "3.541326375258152E-13", "1.767148660017592E-13"], ["-5.281488458005364E-15", "5.967641516450522E-15", "-1.001846278823918E-13", "-6.536806574062434E-14", "-3.92430391677724E-13", "-1.977886011094092E-13"], ["9.761588478410938E-14", "-1.001846278823918E-13", "4.814915976441372E-10", "3.508463601051819E-12", "3.097375463107261E-10", "4.201218692838745E-11"], ["5.826903668056859E-14", "-6.536806574062434E-14", "3.508463601051819E-12", "2.745117046719696E-11", "-1.605594346781226E-11", "-1.901999286832309E-11"], ["3.541326375258152E-13", "-3.92430391677724E-13", "3.097375463107261E-10", "-1.605594346781226E-11", "2.416575006060693E-10", "5.596547591054645E-11"], ["1.767148660017592E-13", "-1.977886011094092E-13", "4.201218692838745E-11", "-1.901999286832309E-11", "5.596547591054645E-11", "1.327223022934499E-10"]], "labels": ["e", "q", "tp", "node", "peri", "i"], "epoch": "2458390.5"}, "elements": [{"label": "e", "value": ".228758891036035", "title": "eccentricity", "units": null, "name": "e", "sigma": "6.8435E-8"}, {"label": "a", "sigma": "2.9652E-9", "name": "a", "value": "1.133166148426832", "title": "semi-major axis", "units": "au"}, {"name": "q", "sigma": "7.7185E-8", "units": "au", "value": ".873944316953135", "title": "perihelion distance", "label": "q"}, {"label": "i", "name": "i", "sigma": "1.152E-5", "units": "deg", "title": "inclination; angle with respect to x-y ecliptic plane", "value": "31.4818969218432"}, {"value": "34.41807453083877", "title": "longitude of the ascending node", "units": "deg", "name": "om", "sigma": "5.2382E-6", "label": "node"}, {"label": "peri", "sigma": "1.5544E-5", "name": "w", "title": "argument of perihelion", "value": "307.0099938137295", "units": "deg"}, {"label": "M", "title": "mean anomaly", "value": "340.7121049045539", "units": "deg", "name": "ma", "sigma": "2.11E-5"}, {"label": "tp", "units": "TDB", "value": "2461224.105931886569", "title": "time of perihelion passage", "name": "tp", "sigma": "2.5874E-5"}, {"units": "d", "title": "sidereal orbital period", "value": "440.5942399163676", "name": "per", "sigma": "1.7294E-6", "label": "period"}, {"units": "deg/d", "title": "mean motion", "value": ".8170783169301855", "name": "n", "sigma": "3.2071E-9", "label": "n"}, {"value": "1.392387979900529", "title": "aphelion distance", "units": "au", "sigma": "3.6435E-9", "name": "ad", "label": "Q"}], "epoch": "2461200.5"}